STARLINK-4061           
1 53247U 22086F   26068.58592743 -.00000824  00000+0 -33711-4 0  9998
2 53247  53.2169 199.7689 0001224  69.4442 290.6682 15.08827445201297
YAM-8                   
1 63254U 25052AW  26068.73092778  .00007810  00000+0  47267-3 0  9993
2 63254  97.7023 329.5345 0002369 152.6796 207.4558 15.10898938 54245
